FENGYUN 1C DEB          
1 30229U 99025WN  17345.87582439  .00000787  00000-0  28905-3 0  9996
2 30229  99.1136 187.1852 0059913  17.8967 107.2197 14.34754674568364
